CCSDS_OMM_VERS = 2.0
CREATION_DATE  = 
ORIGINATOR     = 

OBJECT_NAME    = SL-14 R/B
OBJECT_ID      = 1986-046B
CENTER_NAME    = EARTH
REF_FRAME      = TEME
TIME_SYSTEM    = UTC
MEAN_ELEMENT_THEORY = SGP/SGP4

EPOCH          = 2026-03-03T13:02:20.675904
MEAN_MOTION    = 14.85583365
ECCENTRICITY   = .0021655
INCLINATION    = 82.4782
RA_OF_ASC_NODE = 85.9912
ARG_OF_PERICENTER = 246.8752
MEAN_ANOMALY   = 113.0182

EPHEMERIS_TYPE = 0
CLASSIFICATION_TYPE = U
NORAD_CAT_ID   = 16792
ELEMENT_SET_NO = 999
REV_AT_EPOCH   = 12549
BSTAR          = .67753E-4
MEAN_MOTION_DOT = .612E-5
MEAN_MOTION_DDOT = 0

CCSDS_OMM_VERS = 2.0
CREATION_DATE  = 
ORIGINATOR     = 

OBJECT_NAME    = SL-14 R/B
OBJECT_ID      = 1986-055B
CENTER_NAME    = EARTH
REF_FRAME      = TEME
TIME_SYSTEM    = UTC
MEAN_ELEMENT_THEORY = SGP/SGP4

EPOCH          = 2026-03-03T16:24:41.357664
MEAN_MOTION    = 14.85636306
ECCENTRICITY   = .00187055
INCLINATION    = 82.5212
RA_OF_ASC_NODE = 132.3189
ARG_OF_PERICENTER = 356.8629
MEAN_ANOMALY   = 117.9735

EPHEMERIS_TYPE = 0
CLASSIFICATION_TYPE = U
NORAD_CAT_ID   = 16882
ELEMENT_SET_NO = 999
REV_AT_EPOCH   = 11847
BSTAR          = .67818848E-4
MEAN_MOTION_DOT = .613E-5
MEAN_MOTION_DDOT = 0

CCSDS_OMM_VERS = 2.0
CREATION_DATE  = 
ORIGINATOR     = 

OBJECT_NAME    = AJISAI (EGS)
OBJECT_ID      = 1986-061A
CENTER_NAME    = EARTH
REF_FRAME      = TEME
TIME_SYSTEM    = UTC
MEAN_ELEMENT_THEORY = SGP/SGP4

EPOCH          = 2026-03-03T22:19:58.429632
MEAN_MOTION    = 12.44515541
ECCENTRICITY   = .00112537
INCLINATION    = 50.0081
RA_OF_ASC_NODE = 111.0577
ARG_OF_PERICENTER = 272.2043
MEAN_ANOMALY   = 144.3226

EPHEMERIS_TYPE = 0
CLASSIFICATION_TYPE = U
NORAD_CAT_ID   = 16908
ELEMENT_SET_NO = 999
REV_AT_EPOCH   = 46728
BSTAR          = .1655434E-3
MEAN_MOTION_DOT = -.74E-6
MEAN_MOTION_DDOT = 0

CCSDS_OMM_VERS = 2.0
CREATION_DATE  = 
ORIGINATOR     = 

OBJECT_NAME    = COSMOS 1812
OBJECT_ID      = 1987-003A
CENTER_NAME    = EARTH
REF_FRAME      = TEME
TIME_SYSTEM    = UTC
MEAN_ELEMENT_THEORY = SGP/SGP4

EPOCH          = 2026-03-04T01:10:35.809248
MEAN_MOTION    = 16.26408876
ECCENTRICITY   = .0008403
INCLINATION    = 82.4701
RA_OF_ASC_NODE = 202.0527
ARG_OF_PERICENTER = 285.1252
MEAN_ANOMALY   = 74.9110

EPHEMERIS_TYPE = 0
CLASSIFICATION_TYPE = U
NORAD_CAT_ID   = 17295
ELEMENT_SET_NO = 999
REV_AT_EPOCH   = 14357
BSTAR          = .7982E-3
MEAN_MOTION_DOT = .2533764E-1
MEAN_MOTION_DDOT = -.1224E-5

CCSDS_OMM_VERS = 2.0
CREATION_DATE  = 
ORIGINATOR     = 

OBJECT_NAME    = SL-14 R/B
OBJECT_ID      = 1987-024B
CENTER_NAME    = EARTH
REF_FRAME      = TEME
TIME_SYSTEM    = UTC
MEAN_ELEMENT_THEORY = SGP/SGP4

EPOCH          = 2026-03-03T12:16:43.054752
MEAN_MOTION    = 14.86125276
ECCENTRICITY   = .0016686
INCLINATION    = 82.5253
RA_OF_ASC_NODE = 98.5720
ARG_OF_PERICENTER = 282.2797
MEAN_ANOMALY   = 77.6551

EPHEMERIS_TYPE = 0
CLASSIFICATION_TYPE = U
NORAD_CAT_ID   = 17567
ELEMENT_SET_NO = 999
REV_AT_EPOCH   = 8721
BSTAR          = .64631E-4
MEAN_MOTION_DOT = .591E-5
MEAN_MOTION_DDOT = 0

CCSDS_OMM_VERS = 2.0
CREATION_DATE  = 
ORIGINATOR     = 

OBJECT_NAME    = COSMOS 1833
OBJECT_ID      = 1987-027A
CENTER_NAME    = EARTH
REF_FRAME      = TEME
TIME_SYSTEM    = UTC
MEAN_ELEMENT_THEORY = SGP/SGP4

EPOCH          = 2026-03-03T20:14:09.061152
MEAN_MOTION    = 14.13056076
ECCENTRICITY   = .00245349
INCLINATION    = 70.9233
RA_OF_ASC_NODE = 338.3056
ARG_OF_PERICENTER = 222.6312
MEAN_ANOMALY   = 137.2906

EPHEMERIS_TYPE = 0
CLASSIFICATION_TYPE = U
NORAD_CAT_ID   = 17589
ELEMENT_SET_NO = 999
REV_AT_EPOCH   = 949
BSTAR          = -.44695076E-4
MEAN_MOTION_DOT = -.132E-5
MEAN_MOTION_DDOT = 0

CCSDS_OMM_VERS = 2.0
CREATION_DATE  = 
ORIGINATOR     = 

OBJECT_NAME    = SL-16 R/B
OBJECT_ID      = 1987-027B
CENTER_NAME    = EARTH
REF_FRAME      = TEME
TIME_SYSTEM    = UTC
MEAN_ELEMENT_THEORY = SGP/SGP4

EPOCH          = 2026-03-03T20:00:37.890432
MEAN_MOTION    = 14.17166371
ECCENTRICITY   = .00037003
INCLINATION    = 71.0018
RA_OF_ASC_NODE = 288.8359
ARG_OF_PERICENTER = 155.3712
MEAN_ANOMALY   = 204.7589

EPHEMERIS_TYPE = 0
CLASSIFICATION_TYPE = U
NORAD_CAT_ID   = 17590
ELEMENT_SET_NO = 999
REV_AT_EPOCH   = 1451
BSTAR          = -.63544694E-4
MEAN_MOTION_DOT = -.176E-5
MEAN_MOTION_DDOT = 0

CCSDS_OMM_VERS = 2.0
CREATION_DATE  = 
ORIGINATOR     = 

OBJECT_NAME    = SL-14 R/B
OBJECT_ID      = 1987-038B
CENTER_NAME    = EARTH
REF_FRAME      = TEME
TIME_SYSTEM    = UTC
MEAN_ELEMENT_THEORY = SGP/SGP4

EPOCH          = 2026-03-03T16:55:55.107552
MEAN_MOTION    = 14.85363133
ECCENTRICITY   = .00191593
INCLINATION    = 82.5013
RA_OF_ASC_NODE = 302.4453
ARG_OF_PERICENTER = 179.9345
MEAN_ANOMALY   = 180.1877

EPHEMERIS_TYPE = 0
CLASSIFICATION_TYPE = U
NORAD_CAT_ID   = 17912
ELEMENT_SET_NO = 999
REV_AT_EPOCH   = 7834
BSTAR          = .62505785E-4
MEAN_MOTION_DOT = .563E-5
MEAN_MOTION_DDOT = 0

CCSDS_OMM_VERS = 2.0
CREATION_DATE  = 
ORIGINATOR     = 

OBJECT_NAME    = COSMOS 1844
OBJECT_ID      = 1987-041A
CENTER_NAME    = EARTH
REF_FRAME      = TEME
TIME_SYSTEM    = UTC
MEAN_ELEMENT_THEORY = SGP/SGP4

EPOCH          = 2026-03-03T22:55:33.902400
MEAN_MOTION    = 14.14553266
ECCENTRICITY   = .00296875
INCLINATION    = 70.8994
RA_OF_ASC_NODE = 46.2703
ARG_OF_PERICENTER = 26.4833
MEAN_ANOMALY   = 333.7798

EPHEMERIS_TYPE = 0
CLASSIFICATION_TYPE = U
NORAD_CAT_ID   = 17973
ELEMENT_SET_NO = 999
REV_AT_EPOCH   = 277
BSTAR          = -.11352186E-4
MEAN_MOTION_DOT = -.7E-6
MEAN_MOTION_DDOT = 0

CCSDS_OMM_VERS = 2.0
CREATION_DATE  = 
ORIGINATOR     = 

OBJECT_NAME    = SL-14 R/B
OBJECT_ID      = 1987-055B
CENTER_NAME    = EARTH
REF_FRAME      = TEME
TIME_SYSTEM    = UTC
MEAN_ELEMENT_THEORY = SGP/SGP4

EPOCH          = 2026-03-03T19:38:12.679584
MEAN_MOTION    = 14.85621278
ECCENTRICITY   = .00216338
INCLINATION    = 82.5029
RA_OF_ASC_NODE = 354.5633
ARG_OF_PERICENTER = 36.5793
MEAN_ANOMALY   = 323.6895

EPHEMERIS_TYPE = 0
CLASSIFICATION_TYPE = U
NORAD_CAT_ID   = 18153
ELEMENT_SET_NO = 999
REV_AT_EPOCH   = 6906
BSTAR          = .9167254E-4
MEAN_MOTION_DOT = .821E-5
MEAN_MOTION_DDOT = 0

CCSDS_OMM_VERS = 2.0
CREATION_DATE  = 
ORIGINATOR     = 

OBJECT_NAME    = COSMOS 1867
OBJECT_ID      = 1987-060A
CENTER_NAME    = EARTH
REF_FRAME      = TEME
TIME_SYSTEM    = UTC
MEAN_ELEMENT_THEORY = SGP/SGP4

EPOCH          = 2026-03-03T20:27:22.614048
MEAN_MOTION    = 14.31502019
ECCENTRICITY   = .0014401
INCLINATION    = 65.0119
RA_OF_ASC_NODE = 323.0524
ARG_OF_PERICENTER = 278.2606
MEAN_ANOMALY   = 81.6846

EPHEMERIS_TYPE = 0
CLASSIFICATION_TYPE = U
NORAD_CAT_ID   = 18187
ELEMENT_SET_NO = 999
REV_AT_EPOCH   = 1910
BSTAR          = .4568863E-4
MEAN_MOTION_DOT = .21E-6
MEAN_MOTION_DDOT = 0

CCSDS_OMM_VERS = 2.0
CREATION_DATE  = 
ORIGINATOR     = 

OBJECT_NAME    = SL-14 R/B
OBJECT_ID      = 1988-001B
CENTER_NAME    = EARTH
REF_FRAME      = TEME
TIME_SYSTEM    = UTC
MEAN_ELEMENT_THEORY = SGP/SGP4

EPOCH          = 2026-03-03T19:30:50.658912
MEAN_MOTION    = 14.85519361
ECCENTRICITY   = .0016618
INCLINATION    = 82.5143
RA_OF_ASC_NODE = 200.8861
ARG_OF_PERICENTER = 256.7672
MEAN_ANOMALY   = 103.1690

EPHEMERIS_TYPE = 0
CLASSIFICATION_TYPE = U
NORAD_CAT_ID   = 18749
ELEMENT_SET_NO = 999
REV_AT_EPOCH   = 4115
BSTAR          = .906743E-4
MEAN_MOTION_DOT = .808E-5
MEAN_MOTION_DDOT = 0

